{
    "links": {
        "self": "http://www.neowsapp.com/rest/v1/neo/3826771?api_key=iIulBulltgU6a56xZRHN4H3l9WmuAYTsLGpBGhQ2"
    },
    "id": "3826771",
    "neo_reference_id": "3826771",
    "name": "(2018 PM21)",
    "designation": "2018 PM21",
    "nasa_jpl_url": "http://ssd.jpl.nasa.gov/sbdb.cgi?sstr=3826771",
    "absolute_magnitude_h": 25.6,
    "estimated_diameter": {
        "kilometers": {
            "estimated_diameter_min": 0.0201629919,
            "estimated_diameter_max": 0.0450858206
        },
        "meters": {
            "estimated_diameter_min": 20.1629919443,
            "estimated_diameter_max": 45.0858206172
        },
        "miles": {
            "estimated_diameter_min": 0.0125286985,
            "estimated_diameter_max": 0.0280150214
        },
        "feet": {
            "estimated_diameter_min": 66.1515504905,
            "estimated_diameter_max": 147.9193637137
        }
    },
    "is_potentially_hazardous_asteroid": false,
    "close_approach_data": [
        {
            "close_approach_date": "1959-07-30",
            "close_approach_date_full": "1959-Jul-30 11:56",
            "epoch_date_close_approach": -328968240000,
            "relative_velocity": {
                "kilometers_per_second": "2.700184359",
                "kilometers_per_hour": "9720.66369254",
                "miles_per_hour": "6040.0423927341"
            },
            "miss_distance": {
                "astronomical": "0.0759921304",
                "lunar": "29.5609387256",
                "kilometers": "11368260.844602248",
                "miles": "7063909.7309891024"
            },
            "orbiting_body": "Earth"
        },
        {
            "close_approach_date": "2018-07-31",
            "close_approach_date_full": "2018-Jul-31 00:17",
            "epoch_date_close_approach": 1532996220000,
            "relative_velocity": {
                "kilometers_per_second": "2.8158800596",
                "kilometers_per_hour": "10137.1682143967",
                "miles_per_hour": "6298.8421052178"
            },
            "miss_distance": {
                "astronomical": "0.085013209",
                "lunar": "33.070138301",
                "kilometers": "12717794.98826483",
                "miles": "7902471.363241454"
            },
            "orbiting_body": "Earth"
        },
        {
            "close_approach_date": "2021-07-29",
            "close_approach_date_full": "2021-Jul-29 11:24",
            "epoch_date_close_approach": 1627557840000,
            "relative_velocity": {
                "kilometers_per_second": "3.447224134",
                "kilometers_per_hour": "12410.0068825399",
                "miles_per_hour": "7711.0956654315"
            },
            "miss_distance": {
                "astronomical": "0.1120125322",
                "lunar": "43.5728750258",
                "kilometers": "16756836.230426414",
                "miles": "10412215.2127519532"
            },
            "orbiting_body": "Earth"
        },
        {
            "close_approach_date": "2080-07-30",
            "close_approach_date_full": "2080-Jul-30 09:17",
            "epoch_date_close_approach": 3489556620000,
            "relative_velocity": {
                "kilometers_per_second": "2.7723820233",
                "kilometers_per_hour": "9980.5752839433",
                "miles_per_hour": "6201.5413479591"
            },
            "miss_distance": {
                "astronomical": "0.0752791251",
                "lunar": "29.2835796639",
                "kilometers": "11261596.770423537",
                "miles": "6997631.7486453306"
            },
            "orbiting_body": "Earth"
        }
    ],
    "orbital_data": {
        "orbit_id": "3",
        "orbit_determination_date": "2018-09-09 07:02:00",
        "first_observation_date": "2018-08-11",
        "last_observation_date": "2018-09-08",
        "data_arc_in_days": 28,
        "observations_used": 18,
        "orbit_uncertainty": "7",
        "minimum_orbit_intersection": ".0736883",
        "jupiter_tisserand_invariant": "4.941",
        "epoch_osculation": "2459000.5",
        "eccentricity": ".173250186058504",
        "semi_major_axis": "1.316202228042516",
        "inclination": "4.140782746029563",
        "ascending_node_longitude": "132.0896468283997",
        "orbital_period": "551.5467874286979",
        "perihelion_distance": "1.088169947143533",
        "perihelion_argument": "175.0135321088403",
        "aphelion_distance": "1.544234508941499",
        "perihelion_time": "2458879.139718463535",
        "mean_anomaly": "79.21304656094208",
        "mean_motion": ".6527098121236714",
        "equinox": "J2000",
        "orbit_class": {
            "orbit_class_type": "AMO",
            "orbit_class_description": "Near-Earth asteroid orbits similar to that of 1221 Amor",
            "orbit_class_range": "1.017 AU < q (perihelion) < 1.3 AU"
        }
    },
    "is_sentry_object": false
}